{"timestamp": "2025-03-02T19:01:21.608120", "data": [ {"OBJECT_NAME": "GSAT0204 (GALILEO 8)", "OBJECT_ID": "2015-017B", "EPOCH": "2025-03-01T02:15:54.508032", "MEAN_MOTION": 1.70475316, "ECCENTRICITY": 0.0004208, "INCLINATION": 56.9125, "RA_OF_ASC_NODE": 354.4989, "ARG_OF_PERICENTER": 281.8613, "MEAN_ANOMALY": 78.0964, "EPHEMERIS_TYPE": 0, "CLASSIFICATION_TYPE": "U", "NORAD_CAT_ID": 40545, "ELEMENT_SET_NO": 999, "REV_AT_EPOCH": 2418, "BSTAR": 0, "MEAN_MOTION_DOT": -8.4e-07, "MEAN_MOTION_DDOT": 0, "line1": "1 40545U 15017B   25060.09438088 -.00000084  00000+0  00000+0 0  9996", "line2": "2 40545  56.9125 354.4989 0004208 281.8613  78.0964  1.70475316 24186"}, {"OBJECT_NAME": "IRNSS-1D", "OBJECT_ID": "2015-018A", "EPOCH": "2025-02-28T22:07:52.678272", "MEAN_MOTION": 1.00279188, "ECCENTRICITY": 0.002015, "INCLINATION": 26.9819, "RA_OF_ASC_NODE": 248.2219, "ARG_OF_PERICENTER": 180.4404, "MEAN_ANOMALY": 173.9959, "EPHEMERIS_TYPE": 0, "CLASSIFICATION_TYPE": "U", "NORAD_CAT_ID": 40547, "ELEMENT_SET_NO": 999, "REV_AT_EPOCH": 3649, "BSTAR": 0, "MEAN_MOTION_DOT": -2.78e-06, "MEAN_MOTION_DDOT": 0, "line1": "1 40547U 15018A   25059.92213748 -.00000278  00000+0  00000+0 0  9998", "line2": "2 40547  26.9819 248.2219 0020150 180.4404 173.9959  1.00279188 36495"}, {"OBJECT_NAME": "BEIDOU-3S IGSO-1S (C31)", "OBJECT_ID": "2015-019A", "EPOCH": "2025-02-17T12:45:03.714336", "MEAN_MOTION": 1.00250791, "ECCENTRICITY": 0.0033483, "INCLINATION": 50.1105, "RA_OF_ASC_NODE": 301.2795, "ARG_OF_PERICENTER": 195.657, "MEAN_ANOMALY": 293.7908, "EPHEMERIS_TYPE": 0, "CLASSIFICATION_TYPE": "U", "NORAD_CAT_ID": 40549, "ELEMENT_SET_NO": 999, "REV_AT_EPOCH": 3621, "BSTAR": 0, "MEAN_MOTION_DOT": -1.37e-06, "MEAN_MOTION_DDOT": 0, "line1": "1 40549U 15019A   25048.53129299 -.00000137  00000+0  00000+0 0  9997", "line2": "2 40549  50.1105 301.2795 0033483 195.6570 293.7908  1.00250791 36212"}, {"OBJECT_NAME": "GPS BIIF-10 (PRN 08)", "OBJECT_ID": "2015-033A", "EPOCH": "2025-03-01T01:44:18.851424", "MEAN_MOTION": 2.00553648, "ECCENTRICITY": 0.0104209, "INCLINATION": 54.3703, "RA_OF_ASC_NODE": 286.5474, "ARG_OF_PERICENTER": 23.5185, "MEAN_ANOMALY": 337.0145, "EPHEMERIS_TYPE": 0, "CLASSIFICATION_TYPE": "U", "NORAD_CAT_ID": 40730, "ELEMENT_SET_NO": 999, "REV_AT_EPOCH": 7050, "BSTAR": 0, "MEAN_MOTION_DOT": 7e-08, "MEAN_MOTION_DDOT": 0, "line1": "1 40730U 15033A   25060.07244041  .00000007  00000+0  00000+0 0  9996", "line2": "2 40730  54.3703 286.5474 0104209  23.5185 337.0145  2.00553648 70502"}, {"OBJECT_NAME": "BEIDOU-3S M2S (C58)", "OBJECT_ID": "2015-037A", "EPOCH": "2025-03-01T06:22:09.100704", "MEAN_MOTION": 1.86229031, "ECCENTRICITY": 0.0009523, "INCLINATION": 55.2784, "RA_OF_ASC_NODE": 318.2754, "ARG_OF_PERICENTER": 271.4724, "MEAN_ANOMALY": 88.4771, "EPHEMERIS_TYPE": 0, "CLASSIFICATION_TYPE": "U", "NORAD_CAT_ID": 40748, "ELEMENT_SET_NO": 999, "REV_AT_EPOCH": 6531, "BSTAR": 0, "MEAN_MOTION_DOT": -5e-07, "MEAN_MOTION_DDOT": 0, "line1": "1 40748U 15037A   25060.26538311 -.00000050  00000+0  00000+0 0  9995", "line2": "2 40748  55.2784 318.2754 0009523 271.4724  88.4771  1.86229031 65314"}, {"OBJECT_NAME": "BEIDOU-3S M1S (C57)", "OBJECT_ID": "2015-037B", "EPOCH": "2025-02-28T23:55:03.773280", "MEAN_MOTION": 1.86253623, "ECCENTRICITY": 0.0004519, "INCLINATION": 55.2753, "RA_OF_ASC_NODE": 318.2777, "ARG_OF_PERICENTER": 8.9425, "MEAN_ANOMALY": 351.1243, "EPHEMERIS_TYPE": 0, "CLASSIFICATION_TYPE": "U", "NORAD_CAT_ID": 40749, "ELEMENT_SET_NO": 999, "REV_AT_EPOCH": 6531, "BSTAR": 0, "MEAN_MOTION_DOT": -4.8e-07, "MEAN_MOTION_DDOT": 0, "line1": "1 40749U 15037B   25059.99657145 -.00000048  00000+0  00000+0 0  9998", "line2": "2 40749  55.2753 318.2777 0004519   8.9425 351.1243  1.86253623 65315"}, {"OBJECT_NAME": "GSAT0205 (GALILEO 9)", "OBJECT_ID": "2015-045A", "EPOCH": "2025-02-26T12:23:46.457088", "MEAN_MOTION": 1.7047356, "ECCENTRICITY": 0.0006213, "INCLINATION": 55.1114, "RA_OF_ASC_NODE": 234.7412, "ARG_OF_PERICENTER": 47.9432, "MEAN_ANOMALY": 312.0913, "EPHEMERIS_TYPE": 0, "CLASSIFICATION_TYPE": "U", "NORAD_CAT_ID": 40889, "ELEMENT_SET_NO": 999, "REV_AT_EPOCH": 5890, "BSTAR": 0, "MEAN_MOTION_DOT": 6.6e-07, "MEAN_MOTION_DDOT": 0, "line1": "1 40889U 15045A   25057.51650992  .00000066  00000+0  00000+0 0  9990", "line2": "2 40889  55.1114 234.7412 0006213  47.9432 312.0913  1.70473560 58906"}, {"OBJECT_NAME": "GSAT0206 (GALILEO 10)", "OBJECT_ID": "2015-045B", "EPOCH": "2025-03-01T16:04:49.287360", "MEAN_MOTION": 1.70473511, "ECCENTRICITY": 0.0003947, "INCLINATION": 55.1094, "RA_OF_ASC_NODE": 234.6492, "ARG_OF_PERICENTER": 50.8064, "MEAN_ANOMALY": 309.1899, "EPHEMERIS_TYPE": 0, "CLASSIFICATION_TYPE": "U", "NORAD_CAT_ID": 40890, "ELEMENT_SET_NO": 999, "REV_AT_EPOCH": 5898, "BSTAR": 0, "MEAN_MOTION_DOT": 4.9e-07, "MEAN_MOTION_DDOT": 0, "line1": "1 40890U 15045B   25060.67001490  .00000049  00000+0  00000+0 0  9997", "line2": "2 40890  55.1094 234.6492 0003947  50.8064 309.1899  1.70473511 58981"}, {"OBJECT_NAME": "BEIDOU-3S IGSO-2S (C56)", "OBJECT_ID": "2015-053A", "EPOCH": "2025-02-12T02:05:38.628096", "MEAN_MOTION": 1.00251841, "ECCENTRICITY": 0.0052128, "INCLINATION": 49.9805, "RA_OF_ASC_NODE": 264.5883, "ARG_OF_PERICENTER": 186.8108, "MEAN_ANOMALY": 174.8851, "EPHEMERIS_TYPE": 0, "CLASSIFICATION_TYPE": "U", "NORAD_CAT_ID": 40938, "ELEMENT_SET_NO": 999, "REV_AT_EPOCH": 3444, "BSTAR": 0, "MEAN_MOTION_DOT": -6.6e-07, "MEAN_MOTION_DDOT": 0, "line1": "1 40938U 15053A   25043.08725264 -.00000066  00000+0  00000+0 0  9997", "line2": "2 40938  49.9805 264.5883 0052128 186.8108 174.8851  1.00251841 34448"}, {"OBJECT_NAME": "GPS BIIF-11 (PRN 10)", "OBJECT_ID": "2015-062A", "EPOCH": "2025-03-02T03:01:54.324480", "MEAN_MOTION": 2.00566557, "ECCENTRICITY": 0.0103028, "INCLINATION": 56.6171, "RA_OF_ASC_NODE": 49.056, "ARG_OF_PERICENTER": 228.4522, "MEAN_ANOMALY": 130.6665, "EPHEMERIS_TYPE": 0, "CLASSIFICATION_TYPE": "U", "NORAD_CAT_ID": 41019, "ELEMENT_SET_NO": 999, "REV_AT_EPOCH": 6836, "BSTAR": 0, "MEAN_MOTION_DOT": -2.9e-07, "MEAN_MOTION_DDOT": 0, "line1": "1 41019U 15062A   25061.12632320 -.00000029  00000+0  00000+0 0  9992", "line2": "2 41019  56.6171  49.0560 0103028 228.4522 130.6665  2.00566557 68362"}, {"OBJECT_NAME": "GSAT-15 (GAGAN/PRN 139)", "OBJECT_ID": "2015-065A", "EPOCH": "2025-03-02T09:21:38.656800", "MEAN_MOTION": 1.00271099, "ECCENTRICITY": 0.0001246, "INCLINATION": 0.0848, "RA_OF_ASC_NODE": 272.2077, "ARG_OF_PERICENTER": 83.1566, "MEAN_ANOMALY": 38.9352, "EPHEMERIS_TYPE": 0, "CLASSIFICATION_TYPE": "U", "NORAD_CAT_ID": 41028, "ELEMENT_SET_NO": 999, "REV_AT_EPOCH": 3413, "BSTAR": 0, "MEAN_MOTION_DOT": -2.6e-06, "MEAN_MOTION_DDOT": 0, "line1": "1 41028U 15065A   25061.39003075 -.00000260  00000+0  00000+0 0  9990", "line2": "2 41028   0.0848 272.2077 0001246  83.1566  38.9352  1.00271099 34136"}, {"OBJECT_NAME": "GSAT0209 (GALILEO 12)", "OBJECT_ID": "2015-079A", "EPOCH": "2025-03-01T20:07:58.323936", "MEAN_MOTION": 1.70474744, "ECCENTRICITY": 0.0004496, "INCLINATION": 55.5487, "RA_OF_ASC_NODE": 114.232, "ARG_OF_PERICENTER": 312.6408, "MEAN_ANOMALY": 47.4132, "EPHEMERIS_TYPE": 0, "CLASSIFICATION_TYPE": "U", "NORAD_CAT_ID": 41174, "ELEMENT_SET_NO": 999, "REV_AT_EPOCH": 5730, "BSTAR": 0, "MEAN_MOTION_DOT": 2.7e-07, "MEAN_MOTION_DDOT": 0, "line1": "1 41174U 15079A   25060.83886949  .00000027  00000+0  00000+0 0  9994", "line2": "2 41174  55.5487 114.2320 0004496 312.6408  47.4132  1.70474744 57307"}, {"OBJECT_NAME": "GSAT0208 (GALILEO 11)", "OBJECT_ID": "2015-079B", "EPOCH": "2025-03-01T11:20:00.430080", "MEAN_MOTION": 1.70474496, "ECCENTRICITY": 0.0003844, "INCLINATION": 55.5466, "RA_OF_ASC_NODE": 114.2396, "ARG_OF_PERICENTER": 311.0044, "MEAN_ANOMALY": 49.0554, "EPHEMERIS_TYPE": 0, "CLASSIFICATION_TYPE": "U", "NORAD_CAT_ID": 41175, "ELEMENT_SET_NO": 999, "REV_AT_EPOCH": 5713, "BSTAR": 0, "MEAN_MOTION_DOT": 2.9e-07, "MEAN_MOTION_DDOT": 0, "line1": "1 41175U 15079B   25060.47222720  .00000029  00000+0  00000+0 0  9998", "line2": "2 41175  55.5466 114.2396 0003844 311.0044  49.0554  1.70474496 57134"}, {"OBJECT_NAME": "GPS BIIF-12 (PRN 32)", "OBJECT_ID": "2016-007A", "EPOCH": "2025-03-01T05:10:45.160608", "MEAN_MOTION": 2.00574743, "ECCENTRICITY": 0.0086638, "INCLINATION": 55.2428, "RA_OF_ASC_NODE": 108.2351, "ARG_OF_PERICENTER": 241.1499, "MEAN_ANOMALY": 118.0621, "EPHEMERIS_TYPE": 0, "CLASSIFICATION_TYPE": "U", "NORAD_CAT_ID": 41328, "ELEMENT_SET_NO": 999, "REV_AT_EPOCH": 6639, "BSTAR": 0, "MEAN_MOTION_DOT": 3.6e-07, "MEAN_MOTION_DDOT": 0, "line1": "1 41328U 16007A   25060.21580047  .00000036  00000+0  00000+0 0  9999", "line2": "2 41328  55.2428 108.2351 0086638 241.1499 118.0621  2.00574743 66392"}, {"OBJECT_NAME": "COSMOS 2514 (751)", "OBJECT_ID": "2016-008A", "EPOCH": "2025-03-01T17:45:29.041344", "MEAN_MOTION": 2.13102514, "ECCENTRICITY": 0.0009017, "INCLINATION": 65.2865, "RA_OF_ASC_NODE": 329.1791, "ARG_OF_PERICENTER": 216.4522, "MEAN_ANOMALY": 143.5371, "EPHEMERIS_TYPE": 0, "CLASSIFICATION_TYPE": "U", "NORAD_CAT_ID": 41330, "ELEMENT_SET_NO": 999, "REV_AT_EPOCH": 7055, "BSTAR": 0, "MEAN_MOTION_DOT": -4.5e-07, "MEAN_MOTION_DDOT": 0, "line1": "1 41330U 16008A   25060.73991946 -.00000045  00000+0  00000+0 0  9995", "line2": "2 41330  65.2865 329.1791 0009017 216.4522 143.5371  2.13102514 70556"}, {"OBJECT_NAME": "IRNSS-1F", "OBJECT_ID": "2016-015A", "EPOCH": "2025-03-02T06:34:38.927424", "MEAN_MOTION": 1.00273553, "ECCENTRICITY": 0.0020785, "INCLINATION": 4.1784, "RA_OF_ASC_NODE": 109.1851, "ARG_OF_PERICENTER": 186.4731, "MEAN_ANOMALY": 355.7641, "EPHEMERIS_TYPE": 0, "CLASSIFICATION_TYPE": "U", "NORAD_CAT_ID": 41384, "ELEMENT_SET_NO": 999, "REV_AT_EPOCH": 3292, "BSTAR": 0, "MEAN_MOTION_DOT": 1.57e-06, "MEAN_MOTION_DDOT": 0, "line1": "1 41384U 16015A   25061.27406166  .00000157  00000+0  00000+0 0  9990", "line2": "2 41384   4.1784 109.1851 0020785 186.4731 355.7641  1.00273553 32926"}]}